     3.04           N: GNSS NAV DATA    M: MIXED            RINEX VERSION / TYPE
sbf2rin-15.10.3                         20260424 081915 UTC PGM / RUN BY / DATE 
GPSA   1.8626E-08  1.4901E-08 -1.1921E-07 -1.1921E-07       IONOSPHERIC CORR    
GPSB   1.1469E+05  6.5536E+04 -1.9661E+05 -6.5536E+04       IONOSPHERIC CORR    
GAL    9.0750E+01  1.1328E-01  5.1575E-03  0.0000E+00       IONOSPHERIC CORR    
GPUT -9.3132257462E-10-8.881784197E-15 589824 2415          TIME SYSTEM CORR    
GAUT  9.3132257462E-10 0.000000000E+00 345600 2415          TIME SYSTEM CORR    
GAGP  2.9103830457E-10-8.881784197E-16 345600 2415          TIME SYSTEM CORR    
    18                                                      LEAP SECONDS        
                                                            END OF HEADER       
G18 2026 04 23 09 44 32-3.697983920574E-04 9.322320693173E-12 0.000000000000E+00
     7.900000000000E+01 8.750000000000E+01 4.057669018202E-09-2.163866714489E+00
     4.470348358154E-06 5.883940146305E-03 6.221234798431E-06 5.153633543015E+03
     3.806720000000E+05-3.352761268616E-08 2.204285768801E+00-5.774199962616E-08
     9.713000846044E-01 2.651250000000E+02-2.872411036889E+00-7.931044645558E-09
     5.750239520557E-11 1.000000000000E+00 2.415000000000E+03 0.000000000000E+00
     2.000000000000E+00 0.000000000000E+00-8.381903171539E-09 7.900000000000E+01
     3.735180000000E+05 4.000000000000E+00
E08 2026 04 23 07 30 00-1.325601479039E-04-6.920686246303E-12 0.000000000000E+00
     1.130000000000E+02-1.109687500000E+02 2.886905965507E-09 2.151380558001E+00
    -5.135312676430E-06 4.487816477194E-04 9.223818778992E-06 5.440619480133E+03
     3.726000000000E+05 3.725290298462E-09-1.820204013363E+00 9.313225746155E-09
     9.733706213191E-01 1.451562500000E+02-9.204520950387E-02-5.410225357602E-09
     2.971552348511E-10 5.170000000000E+02 2.415000000000E+03
     3.120000000000E+00 0.000000000000E+00-7.450580596924E-09-8.149072527885E-09
     3.734350000000E+05
E08 2026 04 23 07 30 00-1.325602061115E-04-6.920686246303E-12 0.000000000000E+00
     1.130000000000E+02-1.109687500000E+02 2.886905965507E-09 2.151380558001E+00
    -5.135312676430E-06 4.487816477194E-04 9.223818778992E-06 5.440619480133E+03
     3.726000000000E+05 3.725290298462E-09-1.820204013363E+00 9.313225746155E-09
     9.733706213191E-01 1.451562500000E+02-9.204520950387E-02-5.410225357602E-09
     2.971552348511E-10 2.580000000000E+02 2.415000000000E+03
     3.120000000000E+00 0.000000000000E+00-7.450580596924E-09 0.000000000000E+00
     3.735100000000E+05
E16 2026 04 23 07 30 00-2.741452772170E-05-2.472688720445E-12 0.000000000000E+00
     1.130000000000E+02 3.287500000000E+01 3.456929709284E-09-1.011768314909E+00
     1.436099410057E-06 4.089982248843E-04 7.268041372299E-06 5.440598978043E+03
     3.726000000000E+05-6.146728992462E-08 2.752754370697E-01-1.862645149231E-09
     9.638928680869E-01 1.852812500000E+02-2.991764640583E+00-5.532016144963E-09
    -2.632252501025E-10 5.170000000000E+02 2.415000000000E+03
     3.120000000000E+00 0.000000000000E+00-6.286427378654E-09-4.889443516731E-09
     3.735950000000E+05
E16 2026 04 23 07 30 00-2.741650678217E-05-2.486899575160E-12 0.000000000000E+00
     1.130000000000E+02 3.287500000000E+01 3.456929709284E-09-1.011768314909E+00
     1.436099410057E-06 4.089982248843E-04 7.268041372299E-06 5.440598978043E+03
     3.726000000000E+05-6.146728992462E-08 2.752754370697E-01-1.862645149231E-09
     9.638928680869E-01 1.852812500000E+02-2.991764640583E+00-5.532016144963E-09
    -2.632252501025E-10 2.580000000000E+02 2.415000000000E+03
     3.120000000000E+00 0.000000000000E+00-6.286427378654E-09 0.000000000000E+00
     3.736400000000E+05
S21 2026 04 23 07 42 08 0.000000000000E+00 0.000000000000E+00 3.734040000000E+05
     4.200468400000E+04 0.000000000000E+00 0.000000000000E+00 6.300000000000E+01
    -3.674932960000E+03 0.000000000000E+00 0.000000000000E+00 3.276700000000E+04
     0.000000000000E+00 0.000000000000E+00 0.000000000000E+00 1.320000000000E+02
S36 2026 04 23 07 42 08 0.000000000000E+00 0.000000000000E+00 3.734040000000E+05
     4.200368800000E+04 0.000000000000E+00 0.000000000000E+00 6.300000000000E+01
     3.674846960000E+03 0.000000000000E+00 0.000000000000E+00 3.276700000000E+04
     0.000000000000E+00 0.000000000000E+00 0.000000000000E+00 1.490000000000E+02
S23 2026 04 23 07 44 00 0.000000000000E+00 0.000000000000E+00 3.734410000000E+05
     3.866796400000E+04 0.000000000000E+00 0.000000000000E+00 6.300000000000E+01
     1.681330800000E+04 0.000000000000E+00 0.000000000000E+00 3.276700000000E+04
     0.000000000000E+00 0.000000000000E+00 0.000000000000E+00 4.700000000000E+01
S21 2026 04 23 07 44 32 0.000000000000E+00 0.000000000000E+00 3.735600000000E+05
     4.200468400000E+04 0.000000000000E+00 0.000000000000E+00 6.300000000000E+01
    -3.674932960000E+03 0.000000000000E+00 0.000000000000E+00 3.276700000000E+04
     0.000000000000E+00 0.000000000000E+00 0.000000000000E+00 1.330000000000E+02
S23 2026 04 23 07 45 52 0.000000000000E+00 0.000000000000E+00 3.735640000000E+05
     3.866796400000E+04 0.000000000000E+00 0.000000000000E+00 6.300000000000E+01
     1.681330800000E+04 0.000000000000E+00 0.000000000000E+00 3.276700000000E+04
     0.000000000000E+00 0.000000000000E+00 0.000000000000E+00 4.800000000000E+01
S36 2026 04 23 07 47 12 0.000000000000E+00 0.000000000000E+00 3.736360000000E+05
     4.200368800000E+04 0.000000000000E+00 0.000000000000E+00 6.300000000000E+01
     3.674846960000E+03 0.000000000000E+00 0.000000000000E+00 3.276700000000E+04
     0.000000000000E+00 0.000000000000E+00 0.000000000000E+00 1.510000000000E+02
S21 2026 04 23 07 47 12 0.000000000000E+00 0.000000000000E+00 3.736360000000E+05
     4.200468400000E+04 0.000000000000E+00 0.000000000000E+00 6.300000000000E+01
    -3.674932960000E+03 0.000000000000E+00 0.000000000000E+00 3.276700000000E+04
     0.000000000000E+00 0.000000000000E+00 0.000000000000E+00 1.340000000000E+02
S27 2026 04 23 07 48 16 3.166496753693E-08 3.637978807092E-11 3.736720000000E+05
     2.407928168000E+04 5.418750000000E-04 4.750000000000E-07 3.100000000000E+01
     3.458631456000E+04 3.404375000000E-03-1.500000000000E-07 4.096000000000E+03
    -1.245495200000E+03 5.438800000000E-02 6.562500000000E-06 1.180000000000E+02
